{"type": "FeatureCollection", "features": [{"type": "Feature", "id": 27450079, "properties": {"name": "แม่น้ำเจ้าพระยา", "osm_way_id": 27450079}, "geometry": {"type": "LineString", "coordinates": [[100.5072248, 13.8162227], [100.5088088, 13.8158123], [100.5095966, 13.8156082], [100.5119915, 13.8148659], [100.51346, 13.8142853], [100.5135695, 13.8142209]]}}, {"type": "Feature", "id": 32069903, "properties": {"name": "แม่น้ำเจ้าพระยา", "osm_way_id": 32069903}, "geometry": {"type": "LineString", "coordinates": [[100.5123773, 13.7289077], [100.5124836, 13.7283718], [100.5124887, 13.728331], [100.5127358, 13.7263395], [100.5127623, 13.7257667], [100.5127051, 13.7242873], [100.5126318, 13.7223888], [100.512085, 13.7193408], [100.5120759, 13.7193107]]}}, {"type": "Feature", "id": 124920945, "properties": {"name": "แม่น้ำเจ้าพระยา", "osm_way_id": 124920945}, "geometry": {"type": "LineString", "coordinates": [[100.5150455, 13.8132151], [100.5161607, 13.8121405], [100.5166207, 13.8113907], [100.5168747, 13.8106003], [100.5171637, 13.8097008], [100.51736, 13.80909], [100.5174861, 13.8080692], [100.5175947, 13.8071908], [100.5175576, 13.8051638], [100.5175495, 13.8047203], [100.5175265, 13.8045775], [100.5173643, 13.8035698], [100.5172527, 13.8028768], [100.5167863, 13.8010878], [100.5165327, 13.8004887]]}}, {"type": "Feature", "id": 124920949, "properties": {"name": "แม่น้ำเจ้าพระยา", "osm_way_id": 124920949}, "geometry": {"type": "LineString", "coordinates": [[100.5056892, 13.7863153], [100.5056109, 13.7862184], [100.5052911, 13.7857904], [100.5036621, 13.7832974], [100.5035124, 13.7830684], [100.5029917, 13.7822715], [100.5028031, 13.7818741], [100.5024239, 13.7810751]]}}, {"type": "Feature", "id": 124920951, "properties": {"name": "แม่น้ำเจ้าพระยา", "osm_way_id": 124920951}, "geometry": {"type": "LineString", "coordinates": [[100.4992431, 13.7728868], [100.4991798, 13.772757], [100.4986254, 13.7717108], [100.4981025, 13.7707238], [100.4972027, 13.7690257], [100.495273, 13.7663156], [100.4951158, 13.7661615], [100.4945877, 13.7655274], [100.4945632, 13.7655]]}}, {"type": "Feature", "id": 151678166, "properties": {"name": "แม่น้ำเจ้าพระยา", "osm_way_id": 151678166}, "geometry": {"type": "LineString", "coordinates": [[100.5393757, 13.9557869], [100.5393746, 13.9557289], [100.5391814, 13.9543955], [100.5387862, 13.9528951], [100.5383164, 13.9517445], [100.5376685, 13.9506984], [100.5365146, 13.9492272], [100.5351894, 13.9477698], [100.5340306, 13.9467905], [100.5323533, 13.9456299], [100.5309633, 13.9448831], [100.5293807, 13.9442069], [100.5280181, 13.9438581], [100.5262157, 13.9436186], [100.5242225, 13.9434858]]}}, {"type": "Feature", "id": 151678168, "properties": {"name": "แม่น้ำเจ้าพระยา", "osm_way_id": 151678168}, "geometry": {"type": "LineString", "coordinates": [[100.501809, 13.9362612], [100.5013714, 13.935136], [100.5007625, 13.9331196], [100.5002963, 13.9310059], [100.499361, 13.9251326]]}}, {"type": "Feature", "id": 154400171, "properties": {"name": "แม่น้ำเจ้าพระยา", "osm_way_id": 154400171}, "geometry": {"type": "LineString", "coordinates": [[100.5546882, 13.6562575], [100.5499191, 13.6580406], [100.5459836, 13.6598613], [100.5455434, 13.660065], [100.543769, 13.6605932], [100.5421436, 13.6608225], [100.5406719, 13.6608078], [100.5396579, 13.6606818], [100.5392792, 13.6605869]]}}, {"type": "Feature", "id": 155607274, "properties": {"name": "แม่น้ำเจ้าพระยา", "osm_way_id": 155607274}, "geometry": {"type": "LineString", "coordinates": [[100.5338976, 13.9663645], [100.5347396, 13.9652759], [100.5361344, 13.9634123], [100.5371322, 13.9620483], [100.5379521, 13.9606045], [100.5385872, 13.959133], [100.5391012, 13.9576468], [100.5393489, 13.9563255], [100.5393757, 13.9557869]]}}, {"type": "Feature", "id": 156261314, "properties": {"name": "แม่น้ำเจ้าพระยา", "osm_way_id": 156261314}, "geometry": {"type": "LineString", "coordinates": [[100.5101328, 13.7344203], [100.5109712, 13.7330581], [100.5119108, 13.7307434], [100.5119666, 13.7306059], [100.5121486, 13.7299456], [100.5122871, 13.729384]]}}, {"type": "Feature", "id": 174178468, "properties": {"name": "แม่น้ำเจ้าพระยา", "osm_way_id": 174178468}, "geometry": {"type": "LineString", "coordinates": [[100.499361, 13.9251326], [100.4985568, 13.9213998], [100.4978781, 13.919785], [100.4968868, 13.9182132], [100.4962626, 13.9176074], [100.4949507, 13.9163343], [100.4929441, 13.915095], [100.4908858, 13.9143518]]}}, {"type": "Feature", "id": 174178469, "properties": {"name": "แม่น้ำเจ้าพระยา", "osm_way_id": 174178469}, "geometry": {"type": "LineString", "coordinates": [[100.488825, 13.8991792], [100.4891968, 13.8988473], [100.4896581, 13.8984359], [100.4899947, 13.8979001], [100.4903394, 13.8969675], [100.4906021, 13.895635], [100.4906774, 13.894947], [100.4906579, 13.8943223]]}}, {"type": "Feature", "id": 200043242, "properties": {"name": "แม่น้ำเจ้าพระยา", "osm_way_id": 200043242}, "geometry": {"type": "LineString", "coordinates": [[100.4849925, 13.885673], [100.4815322, 13.8825324], [100.4803347, 13.8813083], [100.4795086, 13.8802876], [100.477759, 13.8776555], [100.4768046, 13.8754645], [100.4765406, 13.8741258], [100.4763753, 13.8726796], [100.4763524, 13.8711801], [100.4769985, 13.8665924], [100.4780235, 13.8596745]]}}, {"type": "Feature", "id": 200043243, "properties": {"name": "แม่น้ำเจ้าพระยา", "osm_way_id": 200043243}, "geometry": {"type": "LineString", "coordinates": [[100.5021369, 13.819527], [100.5028707, 13.8185803], [100.503568, 13.8178849], [100.5043914, 13.817347], [100.5050352, 13.8169941], [100.5056226, 13.8167362], [100.5071672, 13.8162403], [100.5072248, 13.8162227]]}}, {"type": "Feature", "id": 200043244, "properties": {"name": "แม่น้ำเจ้าพระยา", "osm_way_id": 200043244}, "geometry": {"type": "LineString", "coordinates": [[100.4906579, 13.8943223], [100.4903322, 13.8933467], [100.4880166, 13.8891719], [100.4868314, 13.8875793], [100.4849925, 13.885673]]}}, {"type": "Feature", "id": 200551940, "properties": {"name": "แม่น้ำเจ้าพระยา", "osm_way_id": 200551940}, "geometry": {"type": "LineString", "coordinates": [[100.4743773, 13.9184062], [100.4734039, 13.918624], [100.4724274, 13.9187562], [100.4716873, 13.9187542], [100.4710329, 13.9186761], [100.4702685, 13.918462], [100.4701468, 13.9184037], [100.4688907, 13.9178014], [100.4684561, 13.9175513]]}}, {"type": "Feature", "id": 200551941, "properties": {"name": "แม่น้ำเจ้าพระยา", "osm_way_id": 200551941}, "geometry": {"type": "LineString", "coordinates": [[100.4684561, 13.9175513], [100.4679778, 13.9172103], [100.4675877, 13.9168693], [100.4671436, 13.9164006], [100.4668486, 13.9159685], [100.4665449, 13.9153079], [100.4663873, 13.9147917], [100.4663014, 13.9140835], [100.4663062, 13.9131706]]}}, {"type": "Feature", "id": 200551942, "properties": {"name": "แม่น้ำเจ้าพระยา", "osm_way_id": 200551942}, "geometry": {"type": "LineString", "coordinates": [[100.4672538, 13.909273], [100.4677498, 13.9083245], [100.4683409, 13.9073912], [100.4695362, 13.9059136], [100.4708719, 13.9045199], [100.4718697, 13.903638], [100.4729129, 13.902875], [100.4739457, 13.9022998], [100.4749353, 13.9018573], [100.4762095, 13.9014041], [100.4776542, 13.9010604], [100.4786879, 13.9009355], [100.4798466, 13.9008469], [100.4830999, 13.900698], [100.4851991, 13.9004102], [100.4866648, 13.9000658], [100.4876947, 13.8997117], [100.488825, 13.8991792]]}}, {"type": "Feature", "id": 200551943, "properties": {"name": "แม่น้ำเจ้าพระยา", "osm_way_id": 200551943}, "geometry": {"type": "LineString", "coordinates": [[100.4908858, 13.9143518], [100.4898291, 13.9142333], [100.4885691, 13.9142345], [100.4869722, 13.9143426], [100.4857045, 13.9145574], [100.4844364, 13.9148589], [100.4821728, 13.9155733], [100.4798899, 13.9164144], [100.4759356, 13.9179449], [100.4743773, 13.9184062]]}}, {"type": "Feature", "id": 219996450, "properties": {"name": "แม่น้ำเจ้าพระยา", "osm_way_id": 219996450}, "geometry": {"type": "LineString", "coordinates": [[100.5493849, 14.1103576], [100.5496912, 14.1088615], [100.549761, 14.1073908], [100.5495679, 14.1058924], [100.549067, 14.1043272], [100.5481389, 14.102064], [100.5468321, 14.0995451], [100.5460167, 14.0983276], [100.5451063, 14.0972891], [100.5431723, 14.0954419]]}}, {"type": "Feature", "id": 220281448, "properties": {"name": "แม่น้ำเจ้าพระยา", "osm_way_id": 220281448}, "geometry": {"type": "LineString", "coordinates": [[100.5402233, 14.0272188], [100.5384873, 14.0257467], [100.5378445, 14.025067], [100.5372083, 14.0242272], [100.5366546, 14.0232959], [100.5364456, 14.0228039], [100.5362588, 14.0220465], [100.5362052, 14.0212554], [100.5362739, 14.0201808], [100.5370786, 14.016319], [100.5372662, 14.0149498], [100.5372834, 14.0122357], [100.5373692, 14.0110698], [100.5376848, 14.0095059], [100.5393853, 14.004707], [100.5397349, 14.0031115], [100.5398567, 14.0018834]]}}, {"type": "Feature", "id": 220281451, "properties": {"name": "แม่น้ำเจ้าพระยา", "osm_way_id": 220281451}, "geometry": {"type": "LineString", "coordinates": [[100.5545639, 14.0420195], [100.55453, 14.0419039], [100.5543745, 14.0416069], [100.5535912, 14.0404335], [100.5528328, 14.0395137], [100.5516225, 14.0384403], [100.5492545, 14.0369361], [100.5485511, 14.0364122], [100.5474865, 14.0356193], [100.546781, 14.0349656], [100.546106, 14.0342504]]}}, {"type": "Feature", "id": 222143515, "properties": {"name": "แม่น้ำเจ้าพระยา", "osm_way_id": 222143515}, "geometry": {"type": "LineString", "coordinates": [[100.4937779, 13.7407529], [100.4941305, 13.7405125], [100.4947639, 13.7401843], [100.4957946, 13.7398214], [100.4976627, 13.739312]]}}, {"type": "Feature", "id": 222143516, "properties": {"name": "แม่น้ำเจ้าพระยา", "osm_way_id": 222143516}, "geometry": {"type": "LineString", "coordinates": [[100.4882248, 13.7480852], [100.4886955, 13.7468574], [100.4895687, 13.7454531]]}}, {"type": "Feature", "id": 222219406, "properties": {"name": "แม่น้ำเจ้าพระยา", "osm_way_id": 222219406}, "geometry": {"type": "LineString", "coordinates": [[100.4911291, 13.7619452], [100.49108, 13.7619034]]}}, {"type": "Feature", "id": 233751177, "properties": {"name": "แม่น้ำเจ้าพระยา", "osm_way_id": 233751177}, "geometry": {"type": "LineString", "coordinates": [[100.4976627, 13.739312], [100.4992124, 13.7388893], [100.4998706, 13.7387098], [100.4999337, 13.7386948]]}}, {"type": "Feature", "id": 245789067, "properties": {"name": "แม่น้ำเจ้าพระยา", "osm_way_id": 245789067}, "geometry": {"type": "LineString", "coordinates": [[100.5222613, 13.9434658], [100.5158345, 13.9439755], [100.5139053, 13.9439907], [100.512296, 13.9438866], [100.5098585, 13.9435247], [100.5083692, 13.9430848], [100.506835, 13.9423351], [100.5053252, 13.9412016], [100.503906, 13.9397527], [100.5027937, 13.9381568], [100.501809, 13.9362612]]}}, {"type": "Feature", "id": 255794379, "properties": {"name": "แม่น้ำเจ้าพระยา", "osm_way_id": 255794379}, "geometry": {"type": "LineString", "coordinates": [[100.4663062, 13.9131706], [100.4664616, 13.9121664], [100.4668205, 13.9105026], [100.4672538, 13.909273]]}}, {"type": "Feature", "id": 255823625, "properties": {"name": "แม่น้ำเจ้าพระยา", "osm_way_id": 255823625}, "geometry": {"type": "LineString", "coordinates": [[100.4780235, 13.8596745], [100.4786752, 13.8565447], [100.4790044, 13.8556327], [100.4794807, 13.8547143]]}}, {"type": "Feature", "id": 255823626, "properties": {"name": "แม่น้ำเจ้าพระยา", "osm_way_id": 255823626}, "geometry": {"type": "LineString", "coordinates": [[100.4909243, 13.8396367], [100.4918939, 13.837249], [100.4930842, 13.8352655], [100.4938051, 13.8343415], [100.4953353, 13.8323803], [100.4964899, 13.8309004], [100.4968167, 13.8304816], [100.4985351, 13.827721], [100.4987929, 13.8273068], [100.4995179, 13.8257245], [100.5002015, 13.8239795], [100.5009932, 13.8218147], [100.5011924, 13.8212701], [100.5021369, 13.819527]]}}, {"type": "Feature", "id": 255823627, "properties": {"name": "แม่น้ำเจ้าพระยา", "osm_way_id": 255823627}, "geometry": {"type": "LineString", "coordinates": [[100.4794807, 13.8547143], [100.4806477, 13.8532739], [100.4822704, 13.851913], [100.4854267, 13.8502156], [100.4867908, 13.8493436], [100.4881554, 13.8482705], [100.4887193, 13.8476742], [100.4891163, 13.8469242], [100.4894506, 13.8459822], [100.4906219, 13.8407501], [100.4909243, 13.8396367]]}}, {"type": "Feature", "id": 677684760, "properties": {"name": "แม่น้ำเจ้าพระยา", "osm_way_id": 677684760}, "geometry": {"type": "LineString", "coordinates": [[100.5081878, 13.7123371], [100.5081763, 13.712323], [100.506371, 13.7103811], [100.5060627, 13.7100544], [100.5051185, 13.7092187], [100.5050502, 13.7091582], [100.5039136, 13.7082088], [100.5029614, 13.7076064], [100.5007088, 13.7063345], [100.498767, 13.705296], [100.4984651, 13.7051524]]}}, {"type": "Feature", "id": 783824641, "properties": {"name": "แม่น้ำเจ้าพระยา", "osm_way_id": 783824641}, "geometry": {"type": "LineString", "coordinates": [[100.4899019, 13.7449565], [100.490909, 13.7435562], [100.4919034, 13.7424385], [100.4920261, 13.7423108]]}}, {"type": "Feature", "id": 783824642, "properties": {"name": "แม่น้ำเจ้าพระยา", "osm_way_id": 783824642}, "geometry": {"type": "LineString", "coordinates": [[100.4898046, 13.7451015], [100.4899019, 13.7449565]]}}, {"type": "Feature", "id": 783824643, "properties": {"name": "แม่น้ำเจ้าพระยา", "osm_way_id": 783824643}, "geometry": {"type": "LineString", "coordinates": [[100.4895687, 13.7454531], [100.489693, 13.7452678]]}}, {"type": "Feature", "id": 783824644, "properties": {"name": "แม่น้ำเจ้าพระยา", "osm_way_id": 783824644}, "geometry": {"type": "LineString", "coordinates": [[100.489693, 13.7452678], [100.4898046, 13.7451015]]}}, {"type": "Feature", "id": 784180121, "properties": {"name": "แม่น้ำเจ้าพระยา", "osm_way_id": 784180121}, "geometry": {"type": "LineString", "coordinates": [[100.4893673, 13.7601779], [100.4891758, 13.7599057], [100.4885363, 13.758692], [100.4879844, 13.7571224], [100.4877523, 13.7556928], [100.4875804, 13.752461], [100.4876545, 13.7515499], [100.4878848, 13.7495631], [100.4882075, 13.7481302], [100.4882248, 13.7480852]]}}, {"type": "Feature", "id": 784180122, "properties": {"name": "แม่น้ำเจ้าพระยา", "osm_way_id": 784180122}, "geometry": {"type": "LineString", "coordinates": [[100.49108, 13.7619034], [100.4910193, 13.7618519], [100.4901881, 13.7611741], [100.4899585, 13.7609489], [100.4898811, 13.7608471]]}}, {"type": "Feature", "id": 787931157, "properties": {"name": "แม่น้ำเจ้าพระยา", "osm_way_id": 787931157}, "geometry": {"type": "LineString", "coordinates": [[100.5875234, 13.6093876], [100.589211, 13.6084503], [100.5902946, 13.6073763], [100.5915084, 13.6053613], [100.5921292, 13.6036223], [100.592494, 13.6017452], [100.5926227, 13.5997222], [100.5924904, 13.5975112], [100.5919575, 13.5948314], [100.5915522, 13.593597], [100.5905407, 13.5905164], [100.5890178, 13.5877193], [100.588245, 13.586464]]}}, {"type": "Feature", "id": 827876982, "properties": {"name": "แม่น้ำเจ้าพระยา", "osm_way_id": 827876982}, "geometry": {"type": "LineString", "coordinates": [[100.5067191, 13.6857619], [100.507374, 13.6856849], [100.5103592, 13.6853338], [100.5111126, 13.6851847], [100.5133442, 13.6845753], [100.5143872, 13.6842905], [100.5148133, 13.6840519], [100.5150631, 13.683912], [100.5166038, 13.683049], [100.5169692, 13.6827775]]}}, {"type": "Feature", "id": 827876985, "properties": {"name": "แม่น้ำเจ้าพระยา", "osm_way_id": 827876985}, "geometry": {"type": "LineString", "coordinates": [[100.4912312, 13.6996945], [100.4906487, 13.6988258], [100.4901307, 13.6976832], [100.489878, 13.6966152], [100.4898405, 13.6957812], [100.4899148, 13.6953242]]}}, {"type": "Feature", "id": 827876986, "properties": {"name": "แม่น้ำเจ้าพระยา", "osm_way_id": 827876986}, "geometry": {"type": "LineString", "coordinates": [[100.5169692, 13.6827775], [100.5188202, 13.6814022], [100.5205935, 13.6800846], [100.5209418, 13.6797769], [100.5222425, 13.678628], [100.5228322, 13.6781679]]}}, {"type": "Feature", "id": 827876987, "properties": {"name": "แม่น้ำเจ้าพระยา", "osm_way_id": 827876987}, "geometry": {"type": "LineString", "coordinates": [[100.4899148, 13.6953242], [100.4899961, 13.694973], [100.4905532, 13.6932847], [100.49127, 13.6919276], [100.4920507, 13.6910483], [100.4933027, 13.6901659], [100.4951948, 13.6889777], [100.4965796, 13.6882325], [100.4976549, 13.6876539], [100.4983206, 13.6873685], [100.5000455, 13.6868265], [100.5000768, 13.6868186]]}}, {"type": "Feature", "id": 830801708, "properties": {"name": "แม่น้ำเจ้าพระยา", "osm_way_id": 830801708}, "geometry": {"type": "LineString", "coordinates": [[100.4999337, 13.7386948], [100.5025681, 13.7380681], [100.5040513, 13.7376375]]}}, {"type": "Feature", "id": 830801713, "properties": {"name": "แม่น้ำเจ้าพระยา", "osm_way_id": 830801713}, "geometry": {"type": "LineString", "coordinates": [[100.5122871, 13.729384], [100.5123488, 13.7290515], [100.5123773, 13.7289077]]}}, {"type": "Feature", "id": 830801716, "properties": {"name": "แม่น้ำเจ้าพระยา", "osm_way_id": 830801716}, "geometry": {"type": "LineString", "coordinates": [[100.511323, 13.7173163], [100.5101331, 13.7150456], [100.5083604, 13.7125478], [100.5081878, 13.7123371]]}}, {"type": "Feature", "id": 830801719, "properties": {"name": "แม่น้ำเจ้าพระยา", "osm_way_id": 830801719}, "geometry": {"type": "LineString", "coordinates": [[100.4922102, 13.7009166], [100.4912312, 13.6996945]]}}, {"type": "Feature", "id": 830801757, "properties": {"name": "แม่น้ำเจ้าพระยา", "osm_way_id": 830801757}, "geometry": {"type": "LineString", "coordinates": [[100.498397, 13.7051179], [100.4977318, 13.7047685], [100.4966812, 13.7041534], [100.4943099, 13.7027002], [100.4939676, 13.7024652], [100.4926307, 13.701379], [100.4922102, 13.7009166]]}}, {"type": "Feature", "id": 830801758, "properties": {"name": "แม่น้ำเจ้าพระยา", "osm_way_id": 830801758}, "geometry": {"type": "LineString", "coordinates": [[100.5120759, 13.7193107], [100.5117743, 13.7183172], [100.5114207, 13.7175152], [100.511323, 13.7173163]]}}, {"type": "Feature", "id": 830801789, "properties": {"name": "แม่น้ำเจ้าพระยา", "osm_way_id": 830801789}, "geometry": {"type": "LineString", "coordinates": [[100.4898811, 13.7608471], [100.4895462, 13.7604109], [100.4893673, 13.7601779]]}}, {"type": "Feature", "id": 830801792, "properties": {"name": "แม่น้ำเจ้าพระยา", "osm_way_id": 830801792}, "geometry": {"type": "LineString", "coordinates": [[100.5165327, 13.8004887], [100.5164651, 13.8003291], [100.5152357, 13.7974692], [100.5149523, 13.7969833], [100.5142987, 13.7958627], [100.5130136, 13.7942402], [100.5126166, 13.793739], [100.5120328, 13.7930019], [100.5099315, 13.7907689], [100.5095466, 13.79036], [100.5089894, 13.7897678], [100.5083797, 13.789135]]}}, {"type": "Feature", "id": 830801794, "properties": {"name": "แม่น้ำเจ้าพระยา", "osm_way_id": 830801794}, "geometry": {"type": "LineString", "coordinates": [[100.5024239, 13.7810751], [100.5018264, 13.7798162], [100.5014532, 13.7790297], [100.5010421, 13.7778373], [100.5007468, 13.7769906], [100.50036, 13.7758815], [100.5001034, 13.7751458], [100.4994975, 13.7734087], [100.4993324, 13.77307], [100.4992431, 13.7728868]]}}, {"type": "Feature", "id": 832948765, "properties": {"name": "แม่น้ำเจ้าพระยา", "osm_way_id": 832948765}, "geometry": {"type": "LineString", "coordinates": [[100.506591, 13.7368529], [100.50813, 13.7361713], [100.5092221, 13.7354456], [100.5101328, 13.7344203]]}}, {"type": "Feature", "id": 832948768, "properties": {"name": "แม่น้ำเจ้าพระยา", "osm_way_id": 832948768}, "geometry": {"type": "LineString", "coordinates": [[100.5040513, 13.7376375], [100.5060792, 13.7370467], [100.5065542, 13.7368668], [100.506591, 13.7368529]]}}, {"type": "Feature", "id": 832948787, "properties": {"name": "แม่น้ำเจ้าพระยา", "osm_way_id": 832948787}, "geometry": {"type": "LineString", "coordinates": [[100.4920261, 13.7423108], [100.4923003, 13.7420252], [100.4932769, 13.7411518], [100.4936547, 13.7408369], [100.4937779, 13.7407529]]}}, {"type": "Feature", "id": 832948807, "properties": {"name": "แม่น้ำเจ้าพระยา", "osm_way_id": 832948807}, "geometry": {"type": "LineString", "coordinates": [[100.4945632, 13.7655], [100.4939379, 13.764802], [100.4922681, 13.7629381], [100.4917395, 13.7624773], [100.4911291, 13.7619452]]}}, {"type": "Feature", "id": 835519392, "properties": {"name": "แม่น้ำเจ้าพระยา", "osm_way_id": 835519392}, "geometry": {"type": "LineString", "coordinates": [[100.5083797, 13.789135], [100.5083244, 13.7890796], [100.5070925, 13.7878729], [100.5067781, 13.7875239], [100.5056892, 13.7863153]]}}, {"type": "Feature", "id": 835519415, "properties": {"name": "แม่น้ำเจ้าพระยา", "osm_way_id": 835519415}, "geometry": {"type": "LineString", "coordinates": [[100.5500015, 13.6758661], [100.5506403, 13.6771639], [100.5512716, 13.6788809], [100.5514233, 13.6794528], [100.5517372, 13.6806366], [100.551799, 13.6808698], [100.5521805, 13.683143], [100.5522199, 13.6833776], [100.552336, 13.6840699]]}}, {"type": "Feature", "id": 835519420, "properties": {"name": "แม่น้ำเจ้าพระยา", "osm_way_id": 835519420}, "geometry": {"type": "LineString", "coordinates": [[100.5549525, 13.7055962], [100.5564531, 13.7061357], [100.556509, 13.706145], [100.5577342, 13.7063477], [100.5587632, 13.7064326], [100.5599323, 13.7063996], [100.5607371, 13.706294], [100.5623509, 13.7060344], [100.5630012, 13.7058147], [100.5678671, 13.7041708], [100.5695715, 13.7035432], [100.5716331, 13.702784]]}}, {"type": "Feature", "id": 835519421, "properties": {"name": "แม่น้ำเจ้าพระยา", "osm_way_id": 835519421}, "geometry": {"type": "LineString", "coordinates": [[100.5289502, 13.6731105], [100.5305495, 13.6719808], [100.5310736, 13.6716106], [100.5315393, 13.6713398], [100.532316, 13.670888], [100.5326687, 13.670719], [100.5334966, 13.6703222], [100.5344574, 13.6699664], [100.5351556, 13.6697079], [100.5366057, 13.669353], [100.5379164, 13.669147], [100.5391522, 13.6690876], [100.5394541, 13.6691121]]}}, {"type": "Feature", "id": 835519422, "properties": {"name": "แม่น้ำเจ้าพระยา", "osm_way_id": 835519422}, "geometry": {"type": "LineString", "coordinates": [[100.5000768, 13.6868186], [100.5020226, 13.68633], [100.5027539, 13.6861987], [100.5041997, 13.6860434], [100.5066128, 13.6857741], [100.5067191, 13.6857619]]}}, {"type": "Feature", "id": 835519423, "properties": {"name": "แม่น้ำเจ้าพระยา", "osm_way_id": 835519423}, "geometry": {"type": "LineString", "coordinates": [[100.4984651, 13.7051524], [100.4984443, 13.7051425], [100.498397, 13.7051179]]}}, {"type": "Feature", "id": 836466788, "properties": {"name": "แม่น้ำเจ้าพระยา", "osm_way_id": 836466788}, "geometry": {"type": "LineString", "coordinates": [[100.582446, 13.6976035], [100.5834132, 13.696863], [100.5845032, 13.6958021]]}}, {"type": "Feature", "id": 836466799, "properties": {"name": "แม่น้ำเจ้าพระยา", "osm_way_id": 836466799}, "geometry": {"type": "LineString", "coordinates": [[100.588784, 13.6830743], [100.5879658, 13.6812076], [100.5873279, 13.6797521], [100.5858219, 13.6773542]]}}, {"type": "Feature", "id": 836466800, "properties": {"name": "แม่น้ำเจ้าพระยา", "osm_way_id": 836466800}, "geometry": {"type": "LineString", "coordinates": [[100.5845032, 13.6958021], [100.5860945, 13.6942199], [100.5876909, 13.691702], [100.5878575, 13.6914392], [100.5885493, 13.6900418], [100.5889173, 13.6889448], [100.589093, 13.6878286], [100.5892432, 13.686874], [100.5892796, 13.6854743], [100.5891251, 13.6841897], [100.588809, 13.6831561]]}}, {"type": "Feature", "id": 837410984, "properties": {"name": "แม่น้ำเจ้าพระยา", "osm_way_id": 837410984}, "geometry": {"type": "LineString", "coordinates": [[100.5858219, 13.6773542], [100.5856641, 13.6771336], [100.5848713, 13.6760255], [100.5842484, 13.6752563], [100.5793479, 13.669205], [100.5793424, 13.6691978]]}}, {"type": "Feature", "id": 845575183, "properties": {"name": "แม่น้ำเจ้าพระยา", "osm_way_id": 845575183}, "geometry": {"type": "LineString", "coordinates": [[100.5524048, 13.6901158], [100.552345, 13.6907324], [100.5521874, 13.6923572], [100.5521458, 13.6927447], [100.5519299, 13.6947547], [100.5518762, 13.6951003], [100.5516218, 13.6967376], [100.5514149, 13.6980694], [100.5513561, 13.6988305], [100.55136, 13.6990352], [100.551372, 13.6996642], [100.551469, 13.7006293], [100.5516593, 13.7015581], [100.5519718, 13.7023979], [100.5523684, 13.7031561], [100.5528304, 13.7038782], [100.5534604, 13.7046185], [100.5540967, 13.7051267], [100.5549525, 13.7055962]]}}, {"type": "Feature", "id": 889267838, "properties": {"name": "แม่น้ำเจ้าพระยา", "osm_way_id": 889267838}, "geometry": {"type": "LineString", "coordinates": [[100.5340518, 13.6487155], [100.5344358, 13.6455392], [100.534451, 13.6454134], [100.5350293, 13.6421906], [100.5354702, 13.6404453], [100.5360711, 13.6387094], [100.5362913, 13.638225]]}}, {"type": "Feature", "id": 944266555, "properties": {"name": "แม่น้ำเจ้าพระยา", "osm_way_id": 944266555}, "geometry": {"type": "LineString", "coordinates": [[100.588809, 13.6831561], [100.588784, 13.6830743]]}}, {"type": "Feature", "id": 944266557, "properties": {"name": "แม่น้ำเจ้าพระยา", "osm_way_id": 944266557}, "geometry": {"type": "LineString", "coordinates": [[100.552336, 13.6840699], [100.5524461, 13.6852477], [100.5525389, 13.6862407], [100.5525513, 13.6870004], [100.5525737, 13.6883752], [100.552557, 13.6885472], [100.5525406, 13.688716], [100.5524048, 13.6901158]]}}, {"type": "Feature", "id": 944266558, "properties": {"name": "แม่น้ำเจ้าพระยา", "osm_way_id": 944266558}, "geometry": {"type": "LineString", "coordinates": [[100.5716331, 13.702784], [100.5740089, 13.7018935], [100.5781914, 13.7000064], [100.5801808, 13.6991088], [100.5812324, 13.698446], [100.5818729, 13.6980423], [100.582446, 13.6976035]]}}, {"type": "Feature", "id": 944744893, "properties": {"name": "แม่น้ำเจ้าพระยา", "osm_way_id": 944744893}, "geometry": {"type": "LineString", "coordinates": [[100.5228322, 13.6781679], [100.5233183, 13.6777226], [100.5237893, 13.6772911], [100.5264778, 13.6750501], [100.5278454, 13.6740074], [100.5289502, 13.6731105]]}}, {"type": "Feature", "id": 944744900, "properties": {"name": "แม่น้ำเจ้าพระยา", "osm_way_id": 944744900}, "geometry": {"type": "LineString", "coordinates": [[100.5392792, 13.6605869], [100.5382934, 13.6601376], [100.5373263, 13.6593734], [100.5365601, 13.6584861], [100.5358618, 13.6572935], [100.5351376, 13.6558496], [100.5343466, 13.653572], [100.5340326, 13.6521798], [100.5339253, 13.6509287], [100.5339448, 13.6498557], [100.5340518, 13.6487155]]}}, {"type": "Feature", "id": 944744908, "properties": {"name": "แม่น้ำเจ้าพระยา", "osm_way_id": 944744908}, "geometry": {"type": "LineString", "coordinates": [[100.5394541, 13.6691121], [100.5399495, 13.6691522], [100.5404343, 13.6692225], [100.5407368, 13.6692664], [100.5412785, 13.6693787], [100.5424839, 13.6696287], [100.5444825, 13.6703772], [100.5466857, 13.6716664], [100.5479433, 13.6729855], [100.5483189, 13.6733795], [100.549459, 13.6750117], [100.5499867, 13.6758338], [100.5500015, 13.6758661]]}}, {"type": "Feature", "id": 944744910, "properties": {"name": "แม่น้ำเจ้าพระยา", "osm_way_id": 944744910}, "geometry": {"type": "LineString", "coordinates": [[100.5704713, 13.6603891], [100.5702648, 13.6602408], [100.568853, 13.6592275], [100.5664853, 13.657711], [100.5660287, 13.6574811], [100.5649209, 13.6569234], [100.5632579, 13.6563083], [100.5627192, 13.6561988], [100.5622813, 13.6561098], [100.5610667, 13.6558629], [100.5609341, 13.6558359], [100.5589449, 13.6557141], [100.5571751, 13.6558283]]}}, {"type": "Feature", "id": 944744918, "properties": {"name": "แม่น้ำเจ้าพระยา", "osm_way_id": 944744918}, "geometry": {"type": "LineString", "coordinates": [[100.5793424, 13.6691978], [100.5767323, 13.6663383]]}}, {"type": "Feature", "id": 945798932, "properties": {"name": "แม่น้ำเจ้าพระยา", "osm_way_id": 945798932}, "geometry": {"type": "LineString", "coordinates": [[100.5763049, 13.565535], [100.5762523, 13.5644826], [100.5763578, 13.5621054], [100.5768378, 13.560082], [100.5780195, 13.5568912], [100.5794684, 13.5544962], [100.5815077, 13.5520509], [100.5848214, 13.5492704], [100.5945495, 13.5421629]]}}, {"type": "Feature", "id": 945798934, "properties": {"name": "แม่น้ำเจ้าพระยา", "osm_way_id": 945798934}, "geometry": {"type": "LineString", "coordinates": [[100.5767323, 13.6663383], [100.5752203, 13.664748], [100.574891, 13.6644017], [100.5742474, 13.6637248], [100.5731525, 13.6627114], [100.5704713, 13.6603891]]}}, {"type": "Feature", "id": 945798940, "properties": {"name": "แม่น้ำเจ้าพระยา", "osm_way_id": 945798940}, "geometry": {"type": "LineString", "coordinates": [[100.5571751, 13.6558283], [100.556002, 13.6559835], [100.5546882, 13.6562575]]}}, {"type": "Feature", "id": 945798945, "properties": {"name": "แม่น้ำเจ้าพระยา", "osm_way_id": 945798945}, "geometry": {"type": "LineString", "coordinates": [[100.5387123, 13.6332478], [100.5401802, 13.6304307], [100.5411901, 13.6288503], [100.5414578, 13.6284723], [100.5426443, 13.6270352], [100.5428624, 13.626771], [100.5438711, 13.6256867], [100.545491, 13.6239453], [100.5491771, 13.6205342], [100.5493582, 13.6203715], [100.5496718, 13.6200899], [100.5512728, 13.6185647]]}}, {"type": "Feature", "id": 946033014, "properties": {"name": "แม่น้ำเจ้าพระยา", "osm_way_id": 946033014}, "geometry": {"type": "LineString", "coordinates": [[100.583747, 13.5805965], [100.5810678, 13.5774678], [100.5790667, 13.5746493], [100.5778524, 13.572299], [100.5771625, 13.5703446], [100.5766984, 13.5684092], [100.5763416, 13.5659166], [100.5763049, 13.565535]]}}, {"type": "Feature", "id": 951722716, "properties": {"name": "แม่น้ำเจ้าพระยา", "osm_way_id": 951722716}, "geometry": {"type": "LineString", "coordinates": [[100.5681433, 13.6109232], [100.5689164, 13.6108211], [100.5711097, 13.6105615], [100.5715186, 13.610545], [100.5735576, 13.6104628], [100.5741917, 13.6104877], [100.5778491, 13.6106315], [100.5810532, 13.6107574], [100.5833745, 13.610515], [100.5858161, 13.610018], [100.5875234, 13.6093876]]}}, {"type": "Feature", "id": 951722731, "properties": {"name": "แม่น้ำเจ้าพระยา", "osm_way_id": 951722731}, "geometry": {"type": "LineString", "coordinates": [[100.5512728, 13.6185647], [100.5530454, 13.6172384], [100.5559087, 13.6155514], [100.556455, 13.6152501], [100.5590538, 13.6138166], [100.5610907, 13.6128194], [100.5631652, 13.6119454], [100.5653056, 13.6113609], [100.5681433, 13.6109232]]}}, {"type": "Feature", "id": 954257264, "properties": {"name": "แม่น้ำเจ้าพระยา", "osm_way_id": 954257264}, "geometry": {"type": "LineString", "coordinates": [[100.588245, 13.586464], [100.5872262, 13.5850078], [100.5837795, 13.5806344], [100.583747, 13.5805965]]}}, {"type": "Feature", "id": 978805112, "properties": {"name": "แม่น้ำเจ้าพระยา", "osm_way_id": 978805112}, "geometry": {"type": "LineString", "coordinates": [[100.5267029, 13.9835466], [100.5264795, 13.9820875], [100.5264795, 13.9807445], [100.5266823, 13.9792689], [100.5271232, 13.9774546], [100.5277606, 13.9758593], [100.5281296, 13.9750059]]}}, {"type": "Feature", "id": 978805115, "properties": {"name": "แม่น้ำเจ้าพระยา", "osm_way_id": 978805115}, "geometry": {"type": "LineString", "coordinates": [[100.5295033, 13.990445], [100.5287057, 13.9892553], [100.5280784, 13.9880526]]}}, {"type": "Feature", "id": 978805116, "properties": {"name": "แม่น้ำเจ้าพระยา", "osm_way_id": 978805116}, "geometry": {"type": "LineString", "coordinates": [[100.5280784, 13.9880526], [100.5276543, 13.986965], [100.5272295, 13.9856092], [100.5267077, 13.9835777], [100.5267029, 13.9835466]]}}, {"type": "Feature", "id": 978805121, "properties": {"name": "แม่น้ำเจ้าพระยา", "osm_way_id": 978805121}, "geometry": {"type": "LineString", "coordinates": [[100.5351103, 13.9946457], [100.533581, 13.9935473], [100.5314137, 13.9921211], [100.5303248, 13.9912882], [100.5295033, 13.990445]]}}, {"type": "Feature", "id": 979660211, "properties": {"name": "แม่น้ำเจ้าพระยา", "osm_way_id": 979660211}, "geometry": {"type": "LineString", "coordinates": [[100.5427624, 14.0298352], [100.5419826, 14.0288852], [100.5410777, 14.0279433], [100.5402233, 14.0272188]]}}, {"type": "Feature", "id": 979660223, "properties": {"name": "แม่น้ำเจ้าพระยา", "osm_way_id": 979660223}, "geometry": {"type": "LineString", "coordinates": [[100.5398567, 14.0018834], [100.5398743, 14.0017065], [100.539793, 14.000392], [100.5394184, 13.9990776], [100.5388059, 13.9979768], [100.5379057, 13.9968081], [100.5367835, 13.995874], [100.5351103, 13.9946457]]}}, {"type": "Feature", "id": 979660224, "properties": {"name": "แม่น้ำเจ้าพระยา", "osm_way_id": 979660224}, "geometry": {"type": "LineString", "coordinates": [[100.5281296, 13.9750059], [100.5288184, 13.9734775], [100.52974, 13.9718561], [100.5312565, 13.9696461], [100.5332216, 13.9672386], [100.5338976, 13.9663645]]}}, {"type": "Feature", "id": 979660226, "properties": {"name": "แม่น้ำเจ้าพระยา", "osm_way_id": 979660226}, "geometry": {"type": "LineString", "coordinates": [[100.5242225, 13.9434858], [100.5222613, 13.9434658]]}}, {"type": "Feature", "id": 983262748, "properties": {"name": "แม่น้ำเจ้าพระยา", "osm_way_id": 983262748}, "geometry": {"type": "LineString", "coordinates": [[100.5431723, 14.0954419], [100.5424118, 14.0947793], [100.539258, 14.0924142], [100.5360067, 14.0904296], [100.5311497, 14.0880486], [100.5294378, 14.0871377]]}}, {"type": "Feature", "id": 983262750, "properties": {"name": "แม่น้ำเจ้าพระยา", "osm_way_id": 983262750}, "geometry": {"type": "LineString", "coordinates": [[100.5307381, 14.0675982], [100.5325242, 14.0665989]]}}, {"type": "Feature", "id": 983262759, "properties": {"name": "แม่น้ำเจ้าพระยา", "osm_way_id": 983262759}, "geometry": {"type": "LineString", "coordinates": [[100.5512427, 14.0528379], [100.5529438, 14.0514873], [100.5534772, 14.0509547]]}}, {"type": "Feature", "id": 983262769, "properties": {"name": "แม่น้ำเจ้าพระยา", "osm_way_id": 983262769}, "geometry": {"type": "LineString", "coordinates": [[100.5294378, 14.0871377], [100.5276378, 14.0858318], [100.5265439, 14.0848076], [100.5256104, 14.0836395], [100.5247369, 14.0821754], [100.524359, 14.0813159], [100.5240172, 14.0801534], [100.5238724, 14.0791049], [100.5238777, 14.0780252], [100.5240351, 14.0767747]]}}, {"type": "Feature", "id": 983262780, "properties": {"name": "แม่น้ำเจ้าพระยา", "osm_way_id": 983262780}, "geometry": {"type": "LineString", "coordinates": [[100.5240351, 14.0767747], [100.5246271, 14.0746959], [100.5254066, 14.0728219], [100.5264673, 14.0711082], [100.5275109, 14.0699945], [100.5285713, 14.0690914], [100.53001, 14.0680192], [100.5307381, 14.0675982]]}}, {"type": "Feature", "id": 983262784, "properties": {"name": "แม่น้ำเจ้าพระยา", "osm_way_id": 983262784}, "geometry": {"type": "LineString", "coordinates": [[100.5325242, 14.0665989], [100.534848, 14.0652664], [100.5367148, 14.0638956], [100.5462724, 14.0564766], [100.5495181, 14.0541005], [100.5512427, 14.0528379]]}}, {"type": "Feature", "id": 983262792, "properties": {"name": "แม่น้ำเจ้าพระยา", "osm_way_id": 983262792}, "geometry": {"type": "LineString", "coordinates": [[100.5534772, 14.0509547], [100.5542217, 14.0497904], [100.5546856, 14.0483333], [100.5549431, 14.046616], [100.5549756, 14.0451825], [100.5548358, 14.0435976], [100.5545639, 14.0420195]]}}, {"type": "Feature", "id": 983262803, "properties": {"name": "แม่น้ำเจ้าพระยา", "osm_way_id": 983262803}, "geometry": {"type": "LineString", "coordinates": [[100.546106, 14.0342504], [100.5456841, 14.0338033], [100.5450971, 14.0330737], [100.5447593, 14.0326539], [100.5445313, 14.0323179], [100.5434475, 14.0307205], [100.5427624, 14.0298352]]}}, {"type": "Feature", "id": 1068827532, "properties": {"name": "แม่น้ำเจ้าพระยา", "osm_way_id": 1068827532}, "geometry": {"type": "LineString", "coordinates": [[100.5362913, 13.638225], [100.5363691, 13.6380539], [100.5368872, 13.6369142], [100.537471, 13.6356299], [100.5376104, 13.6353623], [100.5387123, 13.6332478]]}}, {"type": "Feature", "id": 1396764063, "properties": {"name": "แม่น้ำเจ้าพระยา", "osm_way_id": 1396764063}, "geometry": {"type": "LineString", "coordinates": [[100.5135695, 13.8142209], [100.5144133, 13.8137241], [100.5149806, 13.8132674], [100.5150455, 13.8132151]]}}]}